{"type": "FeatureCollection", "features": [ {"type": "Feature", "properties": {"norad_id": 66990, "name": "TJS-22", "group": "last-30-days", "lat": -1.7513933354617968, "lon": -137.99566894678364, "alt_km": 35776.40478884373, "timestamp": "2025-12-27T03:58:42.933975+00:00", "meta": {"OBJECT_NAME": "TJS-22", "OBJECT_ID": "2025-290A", "EPOCH": "2025-12-26T08:16:11.063136", "MEAN_MOTION": 1.00271731, "ECCENTRICITY": 0.0003383, "INCLINATION": 1.9542, "RA_OF_ASC_NODE": 285.0377, "ARG_OF_PERICENTER": 343.2436, "MEAN_ANOMALY": 17.306, "EPHEMERIS_TYPE": 0, "CLASSIFICATION_TYPE": "U", "NORAD_CAT_ID": 66990, "ELEMENT_SET_NO": 999, "REV_AT_EPOCH": 29, "BSTAR": 0, "MEAN_MOTION_DOT": 1.6e-07, "MEAN_MOTION_DDOT": 0}, "tle": {"line1": "1 66990U 25290A   25360.34457249  .00000016  00000+0  00000+0 0  9997", "line2": "2 66990   1.9542 285.0377 0003383 343.2436  17.3060  1.00271731   297"}}, "geometry": {"type": "Point", "coordinates": [-137.99566894678364, -1.7513933354617968]}}, {"type": "Feature", "properties": {"norad_id": 66991, "name": "CZ-3B R/B", "group": "last-30-days", "lat": 19.329587213302112, "lon": -23.709886154132967, "alt_km": 21687.96383101401, "timestamp": "2025-12-27T03:58:42.933986+00:00", "meta": {"OBJECT_NAME": "CZ-3B R/B", "OBJECT_ID": "2025-290B", "EPOCH": "2025-12-15T17:23:33.043200", "MEAN_MOTION": 2.38388611, "ECCENTRICITY": 0.7240884, "INCLINATION": 28.4636, "RA_OF_ASC_NODE": 300.4666, "ARG_OF_PERICENTER": 182.7002, "MEAN_ANOMALY": 168.625, "EPHEMERIS_TYPE": 0, "CLASSIFICATION_TYPE": "U", "NORAD_CAT_ID": 66991, "ELEMENT_SET_NO": 999, "REV_AT_EPOCH": 16, "BSTAR": 0.00075879, "MEAN_MOTION_DOT": 0.00057911, "MEAN_MOTION_DDOT": -2.0514e-07}, "tle": {"line1": "1 66991U 25290B   25349.72468800  .00057911 -20514-6  75879-3 0  9998", "line2": "2 66991  28.4636 300.4666 7240884 182.7002 168.6250  2.38388611   165"}}, "geometry": {"type": "Point", "coordinates": [-23.709886154132967, 19.329587213302112]}}, {"type": "Feature", "properties": {"norad_id": 66993, "name": "2025-292A", "group": "last-30-days", "lat": -35.475875999915324, "lon": 79.07119691083304, "alt_km": 561.420470469614, "timestamp": "2025-12-27T03:58:42.933997+00:00", "meta": {"OBJECT_NAME": "2025-292A", "OBJECT_ID": "2025-292A", "EPOCH": "2025-12-26T20:09:26.250624", "MEAN_MOTION": 15.04601913, "ECCENTRICITY": 0.0014757, "INCLINATION": 97.6491, "RA_OF_ASC_NODE": 73.2526, "ARG_OF_PERICENTER": 221.9182, "MEAN_ANOMALY": 138.0915, "EPHEMERIS_TYPE": 0, "CLASSIFICATION_TYPE": "U", "NORAD_CAT_ID": 66993, "ELEMENT_SET_NO": 999, "REV_AT_EPOCH": 251, "BSTAR": 0.00033282, "MEAN_MOTION_DOT": 4.622e-05, "MEAN_MOTION_DDOT": 0}, "tle": {"line1": "1 66993U 25292A   25360.83988716  .00004622  00000+0  33282-3 0  9993", "line2": "2 66993  97.6491  73.2526 0014757 221.9182 138.0915 15.04601913  2510"}}, "geometry": {"type": "Point", "coordinates": [79.07119691083304, -35.475875999915324]}}, {"type": "Feature", "properties": {"norad_id": 66994, "name": "2025-292B", "group": "last-30-days", "lat": -32.74941292539549, "lon": 78.53779902782698, "alt_km": 561.4894211437104, "timestamp": "2025-12-27T03:58:42.934006+00:00", "meta": {"OBJECT_NAME": "2025-292B", "OBJECT_ID": "2025-292B", "EPOCH": "2025-12-26T20:08:43.015200", "MEAN_MOTION": 15.04652741, "ECCENTRICITY": 0.0014548, "INCLINATION": 97.6501, "RA_OF_ASC_NODE": 73.255, "ARG_OF_PERICENTER": 222.2535, "MEAN_ANOMALY": 137.7571, "EPHEMERIS_TYPE": 0, "CLASSIFICATION_TYPE": "U", "NORAD_CAT_ID": 66994, "ELEMENT_SET_NO": 999, "REV_AT_EPOCH": 251, "BSTAR": 0.00037513, "MEAN_MOTION_DOT": 5.224e-05, "MEAN_MOTION_DDOT": 0}, "tle": {"line1": "1 66994U 25292B   25360.83938675  .00005224  00000+0  37513-3 0  9993", "line2": "2 66994  97.6501  73.2550 0014548 222.2535 137.7571 15.04652741  2513"}}, "geometry": {"type": "Point", "coordinates": [78.53779902782698, -32.74941292539549]}}, {"type": "Feature", "properties": {"norad_id": 66995, "name": "2025-292C", "group": "last-30-days", "lat": -31.54048345644476, "lon": 78.30858087291452, "alt_km": 561.4934090689794, "timestamp": "2025-12-27T03:58:42.934015+00:00", "meta": {"OBJECT_NAME": "2025-292C", "OBJECT_ID": "2025-292C", "EPOCH": "2025-12-25T05:50:07.257120", "MEAN_MOTION": 15.04668363, "ECCENTRICITY": 0.0014688, "INCLINATION": 97.6495, "RA_OF_ASC_NODE": 71.6733, "ARG_OF_PERICENTER": 227.9665, "MEAN_ANOMALY": 132.0312, "EPHEMERIS_TYPE": 0, "CLASSIFICATION_TYPE": "U", "NORAD_CAT_ID": 66995, "ELEMENT_SET_NO": 999, "REV_AT_EPOCH": 227, "BSTAR": 0.00041226, "MEAN_MOTION_DOT": 5.751e-05, "MEAN_MOTION_DDOT": 0}, "tle": {"line1": "1 66995U 25292C   25359.24313955  .00005751  00000+0  41226-3 0  9996", "line2": "2 66995  97.6495  71.6733 0014688 227.9665 132.0312 15.04668363  2273"}}, "geometry": {"type": "Point", "coordinates": [78.30858087291452, -31.54048345644476]}}, {"type": "Feature", "properties": {"norad_id": 66996, "name": "2025-292D", "group": "last-30-days", "lat": -29.571639254372034, "lon": 77.95018489244917, "alt_km": 561.0941488080252, "timestamp": "2025-12-27T03:58:42.934024+00:00", "meta": {"OBJECT_NAME": "2025-292D", "OBJECT_ID": "2025-292D", "EPOCH": "2025-12-25T05:49:36.025248", "MEAN_MOTION": 15.04678565, "ECCENTRICITY": 0.0013797, "INCLINATION": 97.6491, "RA_OF_ASC_NODE": 71.6729, "ARG_OF_PERICENTER": 230.5158, "MEAN_ANOMALY": 129.4848, "EPHEMERIS_TYPE": 0, "CLASSIFICATION_TYPE": "U", "NORAD_CAT_ID": 66996, "ELEMENT_SET_NO": 999, "REV_AT_EPOCH": 227, "BSTAR": 0.00027339, "MEAN_MOTION_DOT": 3.792e-05, "MEAN_MOTION_DDOT": 0}, "tle": {"line1": "1 66996U 25292D   25359.24277807  .00003792  00000+0  27339-3 0  9994", "line2": "2 66996  97.6491  71.6729 0013797 230.5158 129.4848 15.04678565  2271"}}, "geometry": {"type": "Point", "coordinates": [77.95018489244917, -29.571639254372034]}}, {"type": "Feature", "properties": {"norad_id": 66997, "name": "2025-292E", "group": "last-30-days", "lat": -24.463007966659024, "lon": 77.0892974376754, "alt_km": 561.2274827481988, "timestamp": "2025-12-27T03:58:42.934033+00:00", "meta": {"OBJECT_NAME": "2025-292E", "OBJECT_ID": "2025-292E", "EPOCH": "2025-12-26T20:06:31.388256", "MEAN_MOTION": 15.04785992, "ECCENTRICITY": 0.0014341, "INCLINATION": 97.6508, "RA_OF_ASC_NODE": 73.2584, "ARG_OF_PERICENTER": 226.0988, "MEAN_ANOMALY": 133.9055, "EPHEMERIS_TYPE": 0, "CLASSIFICATION_TYPE": "U", "NORAD_CAT_ID": 66997, "ELEMENT_SET_NO": 999, "REV_AT_EPOCH": 250, "BSTAR": 0.00035632, "MEAN_MOTION_DOT": 4.977e-05, "MEAN_MOTION_DDOT": 0}, "tle": {"line1": "1 66997U 25292E   25360.83786329  .00004977  00000+0  35632-3 0  9997", "line2": "2 66997  97.6508  73.2584 0014341 226.0988 133.9055 15.04785992  2504"}}, "geometry": {"type": "Point", "coordinates": [77.0892974376754, -24.463007966659024]}}, {"type": "Feature", "properties": {"norad_id": 66998, "name": "2025-292F", "group": "last-30-days", "lat": -14.431417196682498, "lon": 75.57428680370165, "alt_km": 561.6126446476146, "timestamp": "2025-12-27T03:58:42.934042+00:00", "meta": {"OBJECT_NAME": "2025-292F", "OBJECT_ID": "2025-292F", "EPOCH": "2025-12-26T20:03:52.966944", "MEAN_MOTION": 15.04973891, "ECCENTRICITY": 0.0015481, "INCLINATION": 97.6528, "RA_OF_ASC_NODE": 73.2646, "ARG_OF_PERICENTER": 226.9374, "MEAN_ANOMALY": 133.0557, "EPHEMERIS_TYPE": 0, "CLASSIFICATION_TYPE": "U", "NORAD_CAT_ID": 66998, "ELEMENT_SET_NO": 999, "REV_AT_EPOCH": 251, "BSTAR": 0.00047214, "MEAN_MOTION_DOT": 6.652e-05, "MEAN_MOTION_DDOT": 0}, "tle": {"line1": "1 66998U 25292F   25360.83602971  .00006652  00000+0  47214-3 0  9999", "line2": "2 66998  97.6528  73.2646 0015481 226.9374 133.0557 15.04973891  2516"}}, "geometry": {"type": "Point", "coordinates": [75.57428680370165, -14.431417196682498]}}, {"type": "Feature", "properties": {"norad_id": 66999, "name": "2025-292G", "group": "last-30-days", "lat": -10.58993421979294, "lon": 75.0355194078777, "alt_km": 561.136209012604, "timestamp": "2025-12-27T03:58:42.934051+00:00", "meta": {"OBJECT_NAME": "2025-292G", "OBJECT_ID": "2025-292G", "EPOCH": "2025-12-26T20:02:52.168128", "MEAN_MOTION": 15.05038103, "ECCENTRICITY": 0.0014979, "INCLINATION": 97.6538, "RA_OF_ASC_NODE": 73.2673, "ARG_OF_PERICENTER": 228.9456, "MEAN_ANOMALY": 131.0477, "EPHEMERIS_TYPE": 0, "CLASSIFICATION_TYPE": "U", "NORAD_CAT_ID": 66999, "ELEMENT_SET_NO": 999, "REV_AT_EPOCH": 251, "BSTAR": 0.00047053, "MEAN_MOTION_DOT": 6.639e-05, "MEAN_MOTION_DDOT": 0}, "tle": {"line1": "1 66999U 25292G   25360.83532602  .00006639  00000+0  47053-3 0  9999", "line2": "2 66999  97.6538  73.2673 0014979 228.9456 131.0477 15.05038103  2510"}}, "geometry": {"type": "Point", "coordinates": [75.0355194078777, -10.58993421979294]}}, {"type": "Feature", "properties": {"norad_id": 67000, "name": "2025-292H", "group": "last-30-days", "lat": -9.72672751328886, "lon": 74.91892673543744, "alt_km": 561.0723241575097, "timestamp": "2025-12-27T03:58:42.934060+00:00", "meta": {"OBJECT_NAME": "2025-292H", "OBJECT_ID": "2025-292H", "EPOCH": "2025-12-26T20:02:38.927328", "MEAN_MOTION": 15.05073758, "ECCENTRICITY": 0.0014925, "INCLINATION": 97.6551, "RA_OF_ASC_NODE": 73.2701, "ARG_OF_PERICENTER": 228.7571, "MEAN_ANOMALY": 131.237, "EPHEMERIS_TYPE": 0, "CLASSIFICATION_TYPE": "U", "NORAD_CAT_ID": 67000, "ELEMENT_SET_NO": 999, "REV_AT_EPOCH": 238, "BSTAR": 0.00056534, "MEAN_MOTION_DOT": 7.999e-05, "MEAN_MOTION_DDOT": 0}, "tle": {"line1": "1 67000U 25292H   25360.83517277  .00007999  00000+0  56534-3 0  9998", "line2": "2 67000  97.6551  73.2701 0014925 228.7571 131.2370 15.05073758  2382"}}, "geometry": {"type": "Point", "coordinates": [74.91892673543744, -9.72672751328886]}}]}